{"type": "FeatureCollection", "features": [ {"type": "Feature", "properties": {"norad_id": 30465, "name": "FENGYUN 1C DEB", "group": "fengyun-1c-debris", "lat": -78.95589442889208, "lon": 117.2505595846501, "alt_km": 797.055519726664, "timestamp": "2025-12-02T10:50:47.550656+00:00", "meta": {"OBJECT_NAME": "FENGYUN 1C DEB", "OBJECT_ID": "1999-025AGC", "EPOCH": "2025-12-02T04:49:51.416256", "MEAN_MOTION": 14.33700437, "ECCENTRICITY": 0.0017362, "INCLINATION": 98.8306, "RA_OF_ASC_NODE": 64.2001, "ARG_OF_PERICENTER": 63.9274, "MEAN_ANOMALY": 359.8999, "EPHEMERIS_TYPE": 0, "CLASSIFICATION_TYPE": "U", "NORAD_CAT_ID": 30465, "ELEMENT_SET_NO": 999, "REV_AT_EPOCH": 97207, "BSTAR": 0.0021791, "MEAN_MOTION_DOT": 6.016e-05, "MEAN_MOTION_DDOT": 0}, "tle": {"line1": "1 30465U 99025AGC 25336.20128954  .00006016  00000+0  21791-2 0  9997", "line2": "2 30465  98.8306  64.2001 0017362  63.9274 359.8999 14.33700437972076"}}, "geometry": {"type": "Point", "coordinates": [117.2505595846501, -78.95589442889208]}}, {"type": "Feature", "properties": {"norad_id": 30466, "name": "FENGYUN 1C DEB", "group": "fengyun-1c-debris", "lat": -79.48577839781717, "lon": 71.83382311955047, "alt_km": 886.7942038982674, "timestamp": "2025-12-02T10:50:47.550666+00:00", "meta": {"OBJECT_NAME": "FENGYUN 1C DEB", "OBJECT_ID": "1999-025AGD", "EPOCH": "2025-12-02T01:22:36.214176", "MEAN_MOTION": 14.2243611, "ECCENTRICITY": 0.0117194, "INCLINATION": 98.6572, "RA_OF_ASC_NODE": 16.2719, "ARG_OF_PERICENTER": 55.2606, "MEAN_ANOMALY": 2.247, "EPHEMERIS_TYPE": 0, "CLASSIFICATION_TYPE": "U", "NORAD_CAT_ID": 30466, "ELEMENT_SET_NO": 999, "REV_AT_EPOCH": 97199, "BSTAR": 0.0014918, "MEAN_MOTION_DOT": 3.524e-05, "MEAN_MOTION_DDOT": 0}, "tle": {"line1": "1 30466U 99025AGD 25336.05736359  .00003524  00000+0  14918-2 0  9999", "line2": "2 30466  98.6572  16.2719 0117194  55.2606   2.2470 14.22436110971995"}}, "geometry": {"type": "Point", "coordinates": [71.83382311955047, -79.48577839781717]}}, {"type": "Feature", "properties": {"norad_id": 30467, "name": "FENGYUN 1C DEB", "group": "fengyun-1c-debris", "lat": -78.9500859353707, "lon": 132.75650444892727, "alt_km": 855.2035774533606, "timestamp": "2025-12-02T10:50:47.550692+00:00", "meta": {"OBJECT_NAME": "FENGYUN 1C DEB", "OBJECT_ID": "1999-025AGE", "EPOCH": "2025-12-02T01:23:59.826048", "MEAN_MOTION": 14.1721521, "ECCENTRICITY": 0.0065286, "INCLINATION": 98.6804, "RA_OF_ASC_NODE": 3.8426, "ARG_OF_PERICENTER": 157.7466, "MEAN_ANOMALY": 257.6135, "EPHEMERIS_TYPE": 0, "CLASSIFICATION_TYPE": "U", "NORAD_CAT_ID": 30467, "ELEMENT_SET_NO": 999, "REV_AT_EPOCH": 97026, "BSTAR": 0.00098676, "MEAN_MOTION_DOT": 1.991e-05, "MEAN_MOTION_DDOT": 0}, "tle": {"line1": "1 30467U 99025AGE 25336.05833132  .00001991  00000+0  98676-3 0  9997", "line2": "2 30467  98.6804   3.8426 0065286 157.7466 257.6135 14.17215210970260"}}, "geometry": {"type": "Point", "coordinates": [132.75650444892727, -78.9500859353707]}}, {"type": "Feature", "properties": {"norad_id": 30468, "name": "FENGYUN 1C DEB", "group": "fengyun-1c-debris", "lat": 80.28288586498789, "lon": -8.70996652505957, "alt_km": 765.5622939332943, "timestamp": "2025-12-02T10:50:47.550702+00:00", "meta": {"OBJECT_NAME": "FENGYUN 1C DEB", "OBJECT_ID": "1999-025AGF", "EPOCH": "2025-12-02T03:57:24.132096", "MEAN_MOTION": 14.2060089, "ECCENTRICITY": 0.0072751, "INCLINATION": 98.9233, "RA_OF_ASC_NODE": 57.5631, "ARG_OF_PERICENTER": 70.6614, "MEAN_ANOMALY": 347.9282, "EPHEMERIS_TYPE": 0, "CLASSIFICATION_TYPE": "U", "NORAD_CAT_ID": 30468, "ELEMENT_SET_NO": 999, "REV_AT_EPOCH": 96660, "BSTAR": 0.0017607, "MEAN_MOTION_DOT": 3.847e-05, "MEAN_MOTION_DDOT": 0}, "tle": {"line1": "1 30468U 99025AGF 25336.16486264  .00003847  00000+0  17607-2 0  9996", "line2": "2 30468  98.9233  57.5631 0072751  70.6614 347.9282 14.20600890966602"}}, "geometry": {"type": "Point", "coordinates": [-8.70996652505957, 80.28288586498789]}}, {"type": "Feature", "properties": {"norad_id": 30469, "name": "FENGYUN 1C DEB", "group": "fengyun-1c-debris", "lat": -67.9312793314732, "lon": -13.632324902853595, "alt_km": 839.3707821233447, "timestamp": "2025-12-02T10:50:47.550713+00:00", "meta": {"OBJECT_NAME": "FENGYUN 1C DEB", "OBJECT_ID": "1999-025AGG", "EPOCH": "2025-12-01T10:10:26.154912", "MEAN_MOTION": 13.96470209, "ECCENTRICITY": 0.01584801, "INCLINATION": 98.4787, "RA_OF_ASC_NODE": 187.0074, "ARG_OF_PERICENTER": 201.4663, "MEAN_ANOMALY": 281.32, "EPHEMERIS_TYPE": 0, "CLASSIFICATION_TYPE": "U", "NORAD_CAT_ID": 30469, "ELEMENT_SET_NO": 999, "REV_AT_EPOCH": 95548, "BSTAR": 0.00090008969, "MEAN_MOTION_DOT": 1.343e-05, "MEAN_MOTION_DDOT": 0}, "tle": {"line1": "1 30469U 99025AGG 25335.42391383  .00001343  00000+0  90009-3 0  9999", "line2": "2 30469  98.4787 187.0074 0158480 201.4663 281.3200 13.96470209955480"}}, "geometry": {"type": "Point", "coordinates": [-13.632324902853595, -67.9312793314732]}}, {"type": "Feature", "properties": {"norad_id": 30471, "name": "FENGYUN 1C DEB", "group": "fengyun-1c-debris", "lat": 67.86362666496265, "lon": 40.84614060429706, "alt_km": 890.1065174131627, "timestamp": "2025-12-02T10:50:47.550722+00:00", "meta": {"OBJECT_NAME": "FENGYUN 1C DEB", "OBJECT_ID": "1999-025AGJ", "EPOCH": "2025-12-02T04:01:44.547744", "MEAN_MOTION": 14.13512529, "ECCENTRICITY": 0.008149, "INCLINATION": 99.0547, "RA_OF_ASC_NODE": 63.6376, "ARG_OF_PERICENTER": 283.3132, "MEAN_ANOMALY": 141.2395, "EPHEMERIS_TYPE": 0, "CLASSIFICATION_TYPE": "U", "NORAD_CAT_ID": 30471, "ELEMENT_SET_NO": 999, "REV_AT_EPOCH": 96293, "BSTAR": 0.0019149, "MEAN_MOTION_DOT": 3.676e-05, "MEAN_MOTION_DDOT": 0}, "tle": {"line1": "1 30471U 99025AGJ 25336.16787671  .00003676  00000+0  19149-2 0  9999", "line2": "2 30471  99.0547  63.6376 0081490 283.3132 141.2395 14.13512529962933"}}, "geometry": {"type": "Point", "coordinates": [40.84614060429706, 67.86362666496265]}}, {"type": "Feature", "properties": {"norad_id": 30472, "name": "FENGYUN 1C DEB", "group": "fengyun-1c-debris", "lat": 43.95212401414717, "lon": -94.33341400031782, "alt_km": 685.5386450533979, "timestamp": "2025-12-02T10:50:47.550732+00:00", "meta": {"OBJECT_NAME": "FENGYUN 1C DEB", "OBJECT_ID": "1999-025AGK", "EPOCH": "2025-12-01T19:56:21.543360", "MEAN_MOTION": 14.53418885, "ECCENTRICITY": 0.0038948, "INCLINATION": 98.6525, "RA_OF_ASC_NODE": 76.5838, "ARG_OF_PERICENTER": 112.9198, "MEAN_ANOMALY": 14.1364, "EPHEMERIS_TYPE": 0, "CLASSIFICATION_TYPE": "U", "NORAD_CAT_ID": 30472, "ELEMENT_SET_NO": 999, "REV_AT_EPOCH": 97882, "BSTAR": 0.0026036, "MEAN_MOTION_DOT": 0.00010915, "MEAN_MOTION_DDOT": 0}, "tle": {"line1": "1 30472U 99025AGK 25335.83080490  .00010915  00000+0  26036-2 0  9995", "line2": "2 30472  98.6525  76.5838 0038948 112.9198  14.1364 14.53418885978823"}}, "geometry": {"type": "Point", "coordinates": [-94.33341400031782, 43.95212401414717]}}, {"type": "Feature", "properties": {"norad_id": 30474, "name": "FENGYUN 1C DEB", "group": "fengyun-1c-debris", "lat": -59.959133014093524, "lon": -140.8353161328012, "alt_km": 788.8635722477102, "timestamp": "2025-12-02T10:50:47.550743+00:00", "meta": {"OBJECT_NAME": "FENGYUN 1C DEB", "OBJECT_ID": "1999-025AGM", "EPOCH": "2025-12-02T04:58:15.345120", "MEAN_MOTION": 14.37536215, "ECCENTRICITY": 0.0023219, "INCLINATION": 98.9299, "RA_OF_ASC_NODE": 54.6871, "ARG_OF_PERICENTER": 37.5998, "MEAN_ANOMALY": 17.4056, "EPHEMERIS_TYPE": 0, "CLASSIFICATION_TYPE": "U", "NORAD_CAT_ID": 30474, "ELEMENT_SET_NO": 999, "REV_AT_EPOCH": 97242, "BSTAR": 0.0024716, "MEAN_MOTION_DOT": 7.389e-05, "MEAN_MOTION_DDOT": 0}, "tle": {"line1": "1 30474U 99025AGM 25336.20712205  .00007389  00000+0  24716-2 0  9999", "line2": "2 30474  98.9299  54.6871 0023219  37.5998  17.4056 14.37536215972429"}}, "geometry": {"type": "Point", "coordinates": [-140.8353161328012, -59.959133014093524]}}, {"type": "Feature", "properties": {"norad_id": 30475, "name": "FENGYUN 1C DEB", "group": "fengyun-1c-debris", "lat": 38.98745172409694, "lon": 10.92734293359097, "alt_km": 831.121542253175, "timestamp": "2025-12-02T10:50:47.550753+00:00", "meta": {"OBJECT_NAME": "FENGYUN 1C DEB", "OBJECT_ID": "1999-025AGN", "EPOCH": "2025-12-02T02:26:32.966016", "MEAN_MOTION": 14.15627841, "ECCENTRICITY": 0.0042073, "INCLINATION": 98.7885, "RA_OF_ASC_NODE": 17.7755, "ARG_OF_PERICENTER": 321.8683, "MEAN_ANOMALY": 93.7322, "EPHEMERIS_TYPE": 0, "CLASSIFICATION_TYPE": "U", "NORAD_CAT_ID": 30475, "ELEMENT_SET_NO": 999, "REV_AT_EPOCH": 96801, "BSTAR": 0.00083461, "MEAN_MOTION_DOT": 1.605e-05, "MEAN_MOTION_DDOT": 0}, "tle": {"line1": "1 30475U 99025AGN 25336.10177044  .00001605  00000+0  83461-3 0  9993", "line2": "2 30475  98.7885  17.7755 0042073 321.8683  93.7322 14.15627841968014"}}, "geometry": {"type": "Point", "coordinates": [10.92734293359097, 38.98745172409694]}}, {"type": "Feature", "properties": {"norad_id": 30476, "name": "FENGYUN 1C DEB", "group": "fengyun-1c-debris", "lat": -35.63109822695892, "lon": 19.93142658859578, "alt_km": 796.7113044010375, "timestamp": "2025-12-02T10:50:47.550763+00:00", "meta": {"OBJECT_NAME": "FENGYUN 1C DEB", "OBJECT_ID": "1999-025AGP", "EPOCH": "2025-12-02T02:52:50.325024", "MEAN_MOTION": 14.20809034, "ECCENTRICITY": 0.0044812, "INCLINATION": 99.1264, "RA_OF_ASC_NODE": 12.9727, "ARG_OF_PERICENTER": 330.4362, "MEAN_ANOMALY": 96.7955, "EPHEMERIS_TYPE": 0, "CLASSIFICATION_TYPE": "U", "NORAD_CAT_ID": 30476, "ELEMENT_SET_NO": 999, "REV_AT_EPOCH": 96694, "BSTAR": 0.001635, "MEAN_MOTION_DOT": 3.521e-05, "MEAN_MOTION_DDOT": 0}, "tle": {"line1": "1 30476U 99025AGP 25336.12002691  .00003521  00000+0  16350-2 0  9992", "line2": "2 30476  99.1264  12.9727 0044812 330.4362  96.7955 14.20809034966947"}}, "geometry": {"type": "Point", "coordinates": [19.93142658859578, -35.63109822695892]}}]}